XRISM                   
1 57800U 23137A   24275.49035162  .00014694  00000+0  10555-2 0  9997
2 57800  31.0037  55.0947 0008938 179.5241 180.5404 15.03106971 58607
